[{"OBJECT_NAME":"STARLINK-35641","OBJECT_ID":"2025-240X","EPOCH":"2026-03-09T23:08:11.652000","MEAN_MOTION":15.30209821,"ECCENTRICITY":0.00018221,"INCLINATION":53.1609,"RA_OF_ASC_NODE":61.2978,"ARG_OF_PERICENTER":97.0418,"MEAN_ANOMALY":263.079,"EPHEMERIS_TYPE":0,"CLASSIFICATION_TYPE":"U","NORAD_CAT_ID":66167,"ELEMENT_SET_NO":999,"REV_AT_EPOCH":2203,"BSTAR":0.00088509312,"MEAN_MOTION_DOT":0.00025954,"MEAN_MOTION_DDOT":0},{"OBJECT_NAME":"EXPLORER 7","OBJECT_ID":"1959-009A","EPOCH":"2026-03-09T22:10:28.426368","MEAN_MOTION":15.26652664,"ECCENTRICITY":0.00808181,"INCLINATION":50.2405,"RA_OF_ASC_NODE":230.2318,"ARG_OF_PERICENTER":85.1115,"MEAN_ANOMALY":275.9066,"EPHEMERIS_TYPE":0,"CLASSIFICATION_TYPE":"U","NORAD_CAT_ID":22,"ELEMENT_SET_NO":999,"REV_AT_EPOCH":78517,"BSTAR":0.00064628265,"MEAN_MOTION_DOT":0.00018598,"MEAN_MOTION_DDOT":0}]
